{
    "links": {
        "self": "http://www.neowsapp.com/rest/v1/neo/3755115?api_key=iIulBulltgU6a56xZRHN4H3l9WmuAYTsLGpBGhQ2"
    },
    "id": "3755115",
    "neo_reference_id": "3755115",
    "name": "(2016 NR16)",
    "designation": "2016 NR16",
    "nasa_jpl_url": "http://ssd.jpl.nasa.gov/sbdb.cgi?sstr=3755115",
    "absolute_magnitude_h": 24.4,
    "estimated_diameter": {
        "kilometers": {
            "estimated_diameter_min": 0.0350392641,
            "estimated_diameter_max": 0.0783501764
        },
        "meters": {
            "estimated_diameter_min": 35.0392641108,
            "estimated_diameter_max": 78.3501764334
        },
        "miles": {
            "estimated_diameter_min": 0.0217723826,
            "estimated_diameter_max": 0.0486845275
        },
        "feet": {
            "estimated_diameter_min": 114.9582192654,
            "estimated_diameter_max": 257.0543928497
        }
    },
    "is_potentially_hazardous_asteroid": false,
    "close_approach_data": [
        {
            "close_approach_date": "2016-06-27",
            "close_approach_date_full": "2016-Jun-27 18:44",
            "epoch_date_close_approach": 1467053040000,
            "relative_velocity": {
                "kilometers_per_second": "7.04446575",
                "kilometers_per_hour": "25360.0766998367",
                "miles_per_hour": "15757.7654360735"
            },
            "miss_distance": {
                "astronomical": "0.0548331402",
                "lunar": "21.3300915378",
                "kilometers": "8202920.979331374",
                "miles": "5097058.7428020012"
            },
            "orbiting_body": "Earth"
        }
    ],
    "orbital_data": {
        "orbit_id": "4",
        "orbit_determination_date": "2017-04-06 08:25:06",
        "first_observation_date": "2016-07-07",
        "last_observation_date": "2016-08-10",
        "data_arc_in_days": 34,
        "observations_used": 19,
        "orbit_uncertainty": "8",
        "minimum_orbit_intersection": ".0352565",
        "jupiter_tisserand_invariant": "3.893",
        "epoch_osculation": "2457582.5",
        "eccentricity": ".436646350186651",
        "semi_major_axis": "1.843153045515278",
        "inclination": "2.71785154765096",
        "ascending_node_longitude": "259.0101168561819",
        "orbital_period": "913.9880638973189",
        "perihelion_distance": "1.038346995355622",
        "perihelion_argument": "38.89971631030052",
        "aphelion_distance": "2.647959095674935",
        "perihelion_time": "2457585.194783531287",
        "mean_anomaly": "358.9385834349667",
        "mean_motion": ".3938782290711007",
        "equinox": "J2000",
        "orbit_class": {
            "orbit_class_type": "AMO",
            "orbit_class_description": "Near-Earth asteroid orbits similar to that of 1221 Amor",
            "orbit_class_range": "1.017 AU < q (perihelion) < 1.3 AU"
        }
    },
    "is_sentry_object": false
}